QIANFAN-17              
1 60395U 24140S   26012.76687460  .00000131  00000+0  18325-3 0  9995
2 60395  88.9790 296.2313 0016374 111.8913 248.3981 13.50984897 72320
QIANFAN-18              
1 60396U 24140T   26012.82034867  .00000134  00000+0  18800-3 0  9991
2 60396  88.9783 295.7572 0015989  95.9245 264.3729 13.50984974 71722
QIANFAN-19              
1 61552U 24185A   26012.78573934  .00000394  00000+0  19871-3 0  9990
2 61552  88.9795  74.3870 0006661 186.2887 173.8217 14.14331418 74050
QIANFAN-20              
1 61553U 24185B   26012.79627681  .00000355  00000+0  19733-3 0  9995
2 61553  88.9795  74.7411 0004402 230.8540 129.2253 14.08879212 73864
QIANFAN-21              
1 61554U 24185C   26012.83955052  .00000508  00000+0  22094-3 0  9991
2 61554  88.9710  73.3397 0008443 257.8330 102.1916 14.22654979 74397
QIANFAN-22              
1 61555U 24185D   26012.82645273  .00000177  00000+0  14207-3 0  9991
2 61555  88.9779  75.8437 0004495 253.0854 106.9825 13.86316079 73246
QIANFAN-23              
1 61556U 24185E   26012.78807269  .00000414  00000+0  20182-3 0  9995
2 61556  88.9787  74.1817 0006886 199.6969 160.3954 14.16326318 74146
QIANFAN-24              
1 61557U 24185F   26012.81602906  .00000626  00000+0  26711-3 0  9990
2 61557  88.9768  73.5325 0009362 182.8708 177.2432 14.23857324 74445
